STARLINK-36998
1 68286U 26055AA  26092.83335647 -.01519565  00000+0 -81832-2 0  9993
2 68286  53.1584 216.0820 0000810  69.0776 270.0222 15.82280425  3512
STARLINK-37151
1 68290U 26055AE  26092.83335647 -.01555836  00000+0 -83947-2 0  9998
2 68290  53.1582 216.0534 0000729  64.9379 286.9624 15.82310112  3518
